CBERS 4A                
1 44883U 19093E   26169.30548652 -.00000007  00000+0  59533-5 0  9993
2 44883  98.0193 236.7463 0000652  46.3862 313.7404 14.81399687351245
WEILAI 1R               
1 44884U 19093F   26169.18814025  .00003386  00000+0  27171-3 0  9993
2 44884  97.7865 259.0748 0017868  33.8012 326.4347 15.00651214352570
FLORIPASAT-1            
1 44885U 19093G   26169.22350949  .00004684  00000+0  34410-3 0  9995
2 44885  97.7910 263.4607 0012597  68.5165 291.7402 15.03879455352807
SHUNTIAN                
1 44886U 19093H   26169.27884944  .00001963  00000+0  18378-3 0  9990
2 44886  97.8022 257.4339 0013277  64.8922 295.3674 14.95167448352346
ELEKTRO-L 3             
1 44903U 19095A   26169.19703192 -.00000102  00000+0  00000+0 0  9992
2 44903   0.2604  81.4978 0000912 351.5451 340.2826  1.00271341 23714
GONETS-M 14             
1 44905U 19096A   26169.25566348  .00000079  00000+0  50098-3 0  9990
2 44905  82.5242  83.9789 0013559 145.5982 214.5978 12.42869942293814
GONETS-M 15             
1 44906U 19096B   26169.28506256  .00000072  00000+0  44899-3 0  9991
2 44906  82.5262  84.4223 0014925 168.9498 191.1913 12.42871512293786
GONETS-M 16             
1 44907U 19096C   26169.23076223  .00000076  00000+0  48012-3 0  9998
2 44907  82.5207  83.4079 0009825 212.1434 147.9048 12.42891770293763
RS-44 & BREEZE-KM R/B   
1 44909U 19096E   26168.94337089  .00000011  00000+0 -58517-5 0  9990
2 44909  82.5219 339.2023 0218197 142.4037 219.2549 12.79748846302447
JILIN-1 KUANFU 01       
1 45016U 20003A   26169.27906742  .00002613  00000+0  16140-3 0  9998
2 45016  97.5029 243.2131 0008273 303.2687  56.7749 15.10729808355490
XINGYUN-2 01            
1 45602U 20028A   26169.26721850  .00001517  00000+0  92551-4 0  9993
2 45602  97.4859 161.6466 0008432 189.6824 170.4246 15.11808051335001
XINGYUN-2 02            
1 45603U 20028B   26169.24602317  .00001038  00000+0  65003-4 0  9998
2 45603  97.5062 175.2191 0009109 269.1201  90.8986 15.11538313334994
HAIYANG-1D              
1 45721U 20036A   26169.29867139  .00000493  00000+0  19136-3 0  9997
2 45721  98.4563 110.9550 0003426 124.8541 235.2967 14.34175030315132
M2 PATHFINDER           
1 45727U 20037E   26169.11088192  .00001249  00000+0  93240-4 0  9998
2 45727  97.8146   0.3531 0012547 143.4476 216.7608 15.04678445325635
GAOFEN DUOMO (GFDM)     
1 45856U 20042A   26169.29145666  .00000413  00000+0  65635-4 0  9995
2 45856  97.7744 229.1374 0012430  71.7305 288.5257 14.76881612321174
ZIYUAN 3-03 (ZY 3-03)   
1 45939U 20051A   26169.23661432  .00002307  00000+0  10627-3 0  9999
2 45939  97.2832 236.9286 0002789 339.5375  20.5748 15.21264061327501
NEMO-HD                 
1 46277U 20061F   26169.23109163  .00008802  00000+0  19101-3 0  9996
2 46277  97.1916 231.1734 0002214  80.0165 280.1334 15.44612036322146
NAPA-1                  
1 46320U 20061BA  26169.24757726  .00057987  00000+0  52053-3 0  9991
2 46320  97.2460 243.4617 0001517 173.0406 187.0877 15.68108810321908
JILIN-1 GAOFEN 3E       
1 46457U 20065D   26169.30987968  .00053734  00000+0  57194-3 0  9993
2 46457  97.2239 221.9450 0012899 153.5932 206.5987 15.63744849319933
JILIN-1 GAOFEN 3F       
1 46458U 20065E   26169.20859797  .00042817  00000+0  50734-3 0  9994
2 46458  97.2193 219.1720 0014433 143.0040 217.2216 15.60995955319861
JILIN-1 GAOFEN 3G       
1 46459U 20065F   26168.97572573  .00083219  00000+0  65029-3 0  9996
2 46459  97.2263 225.7514 0007974  62.0391 298.1679 15.71351349320065
JILIN-1 GAOFEN 3H       
1 46460U 20065G   26169.20435167  .00059830  00000+0  54106-3 0  9998
2 46460  97.2208 222.3102 0003347 343.1331  16.9819 15.67913879320046
HAIYANG-2C              
1 46469U 20066A   26169.25020454  .00000062  00000+0  13045-3 0  9992
2 46469  65.9956 212.6376 0008873 238.0359 121.9848 13.83375917289643
HJ-2A                   
1 46478U 20067A   26169.24948986  .00000713  00000+0  10954-3 0  9990
2 46478  97.8830 247.5966 0002344 262.2356  97.8587 14.76517805308418
HJ-2B                   
1 46479U 20067B   26169.28634451  .00000174  00000+0  32012-4 0  9995
2 46479  97.8895 248.6553 0001286  99.1886 260.9469 14.76558502308425
GONETS-M 17             
1 46486U 20068A   26169.25589525  .00000021  00000+0  82532-4 0  9995
2 46486  82.4984 346.8371 0023050  35.2511 325.0088 12.42873264259296
GONETS-M 18             
1 46487U 20068B   26169.30004912  .00000062  00000+0  37520-3 0  9995
2 46487  82.4938 345.9271 0020288  31.8803 328.3500 12.42873769259285
