OBJECT_NAME,OBJECT_ID,EPOCH,MEAN_MOTION,ECCENTRICITY,INCLINATION,RA_OF_ASC_NODE,ARG_OF_PERICENTER,MEAN_ANOMALY,EPHEMERIS_TYPE,CLASSIFICATION_TYPE,NORAD_CAT_ID,ELEMENT_SET_NO,REV_AT_EPOCH,BSTAR,MEAN_MOTION_DOT,MEAN_MOTION_DDOT
CBERS 4A,2019-093E,2026-06-18T07:19:54.035328,14.81399687,.00006522,98.0193,236.7463,46.3862,313.7404,0,U,44883,999,35124,.5953298E-5,-.7E-7,0
WEILAI 1R,2019-093F,2026-06-18T04:30:55.317600,15.00651214,.00178688,97.7865,259.0748,33.8012,326.4347,0,U,44884,999,35257,.27170954E-3,.3386E-4,0
FLORIPASAT-1,2019-093G,2026-06-18T05:21:51.219936,15.03879455,.00125971,97.7910,263.4607,68.5165,291.7402,0,U,44885,999,35280,.34410089E-3,.4684E-4,0
SHUNTIAN,2019-093H,2026-06-18T06:41:32.591616,14.95167448,.00132775,97.8022,257.4339,64.8922,295.3674,0,U,44886,999,35234,.18378388E-3,.1963E-4,0
ELEKTRO-L 3,2019-095A,2026-06-18T04:43:43.557888,1.00271341,.00009124,0.2604,81.4978,351.5451,340.2826,0,U,44903,999,2371,0,-.102E-5,0
GONETS-M 14,2019-096A,2026-06-18T06:08:09.324672,12.42869942,.00135599,82.5242,83.9789,145.5982,214.5978,0,U,44905,999,29381,.50098142E-3,.79E-6,0
GONETS-M 15,2019-096B,2026-06-18T06:50:29.405184,12.42871512,.00149258,82.5262,84.4223,168.9498,191.1913,0,U,44906,999,29378,.44898917E-3,.72E-6,0
GONETS-M 16,2019-096C,2026-06-18T05:32:17.856672,12.42891770,.00098253,82.5207,83.4079,212.1434,147.9048,0,U,44907,999,29376,.4801167E-3,.76E-6,0
RS-44 & BREEZE-KM R/B,2019-096E,2026-06-17T22:38:27.244896,12.79748846,.02181978,82.5219,339.2023,142.4037,219.2549,0,U,44909,999,30244,-.5851704E-5,.11E-6,0
JILIN-1 KUANFU 01,2020-003A,2026-06-18T06:41:51.425088,15.10729808,.0008273,97.5029,243.2131,303.2687,56.7749,0,U,45016,999,35549,.16140224E-3,.2613E-4,0
XINGYUN-2 01,2020-028A,2026-06-18T06:24:47.678400,15.11808051,.00084325,97.4859,161.6466,189.6824,170.4246,0,U,45602,999,33500,.92551443E-4,.1517E-4,0
XINGYUN-2 02,2020-028B,2026-06-18T05:54:16.401888,15.11538313,.00091092,97.5062,175.2191,269.1201,90.8986,0,U,45603,999,33499,.65002971E-4,.1038E-4,0
HAIYANG-1D,2020-036A,2026-06-18T07:10:05.208096,14.34175030,.00034266,98.4563,110.9550,124.8541,235.2967,0,U,45721,999,31513,.19135862E-3,.493E-5,0
M2 PATHFINDER,2020-037E,2026-06-18T02:39:40.197888,15.04678445,.00125476,97.8146,0.3531,143.4476,216.7608,0,U,45727,999,32563,.93240256E-4,.1249E-4,0
GAOFEN DUOMO (GFDM),2020-042A,2026-06-18T06:59:41.855424,14.76881612,.00124307,97.7744,229.1374,71.7305,288.5257,0,U,45856,999,32117,.65634761E-4,.413E-5,0
ZIYUAN 3-03 (ZY 3-03),2020-051A,2026-06-18T05:40:43.477248,15.21264061,.00027897,97.2832,236.9286,339.5375,20.5748,0,U,45939,999,32750,.10626815E-3,.2307E-4,0
NEMO-HD,2020-061F,2026-06-18T05:32:46.316832,15.44612036,.00022146,97.1916,231.1734,80.0165,280.1334,0,U,46277,999,32214,.19100869E-3,.8802E-4,0
NAPA-1,2020-061BA,2026-06-18T05:56:30.675264,15.68108810,.00015173,97.2460,243.4617,173.0406,187.0877,0,U,46320,999,32190,.52052636E-3,.57987E-3,0
JILIN-1 GAOFEN 3E,2020-065D,2026-06-18T07:26:13.604352,15.63744849,.00128994,97.2239,221.9450,153.5932,206.5987,0,U,46457,999,31993,.57194308E-3,.53734E-3,0
JILIN-1 GAOFEN 3F,2020-065E,2026-06-18T05:00:22.864608,15.60995955,.00144333,97.2193,219.1720,143.0040,217.2216,0,U,46458,999,31986,.50734017E-3,.42817E-3,0
JILIN-1 GAOFEN 3G,2020-065F,2026-06-17T23:25:02.703072,15.71351349,.00079747,97.2263,225.7514,62.0391,298.1679,0,U,46459,999,32006,.65029297E-3,.83219E-3,0
JILIN-1 GAOFEN 3H,2020-065G,2026-06-18T04:54:15.984288,15.67913879,.00033478,97.2208,222.3102,343.1331,16.9819,0,U,46460,999,32004,.54106403E-3,.5983E-3,0
HAIYANG-2C,2020-066A,2026-06-18T06:00:17.672256,13.83375917,.00088732,65.9956,212.6376,238.0359,121.9848,0,U,46469,999,28964,.13044759E-3,.62E-6,0
HJ-2A,2020-067A,2026-06-18T05:59:15.923904,14.76517805,.00023449,97.8830,247.5966,262.2356,97.8587,0,U,46478,999,30841,.10953925E-3,.713E-5,0
HJ-2B,2020-067B,2026-06-18T06:52:20.165664,14.76558502,.00012862,97.8895,248.6553,99.1886,260.9469,0,U,46479,999,30842,.32011573E-4,.174E-5,0
GONETS-M 17,2020-068A,2026-06-18T06:08:29.349600,12.42873264,.00230503,82.4984,346.8371,35.2511,325.0088,0,U,46486,999,25929,.82531922E-4,.21E-6,0
GONETS-M 18,2020-068B,2026-06-18T07:12:04.243968,12.42873769,.00202887,82.4938,345.9271,31.8803,328.3500,0,U,46487,999,25928,.37520008E-3,.62E-6,0
